{
  "type": "FeatureCollection",
  "features": [
    {
      "type": "Feature",
      "properties": {
        "norad_id": 37846,
        "name": "GSAT0101 (GALILEO-PFM)",
        "group": "gnss",
        "lat": 24.024010147844734,
        "lon": 149.75480819891033,
        "alt_km": 23228.44212261185,
        "timestamp": "2025-12-21T22:41:41.703039+00:00",
        "meta_object_name": "GSAT0101 (GALILEO-PFM)",
        "meta_object_id": "2011-060A",
        "meta_epoch": "2025-12-21T02:42:49.222944",
        "meta_mean_motion": 1.70475776,
        "meta_eccentricity": 0.00032099,
        "meta_inclination": 57.0509,
        "meta_ra_of_asc_node": 346.5929,
        "meta_arg_of_pericenter": 319.8352,
        "meta_mean_anomaly": 40.1502,
        "meta_ephemeris_type": 0,
        "meta_classification_type": "U",
        "meta_norad_cat_id": 37846,
        "meta_element_set_no": 999,
        "meta_rev_at_epoch": 8808,
        "meta_bstar": 0,
        "meta_mean_motion_dot": -6.8e-07,
        "meta_mean_motion_ddot": 0,
        "tle_line1": "1 37846U 11060A   25355.11306971 -.00000068  00000+0  00000+0 0  9997",
        "tle_line2": "2 37846  57.0509 346.5929 0003209 319.8352  40.1502  1.70475776 88089"
      },
      "geometry": {
        "type": "Point",
        "coordinates": [
          149.75480819891033,
          24.024010147844734
        ]
      }
    },
    {
      "type": "Feature",
      "properties": {
        "norad_id": 37847,
        "name": "GSAT0102 (GALILEO-FM2)",
        "group": "gnss",
        "lat": -13.703266595869685,
        "lon": 175.65947711764514,
        "alt_km": 23230.785819638677,
        "timestamp": "2025-12-21T22:41:41.703051+00:00",
        "meta_object_name": "GSAT0102 (GALILEO-FM2)",
        "meta_object_id": "2011-060B",
        "meta_epoch": "2025-12-21T07:52:29.961984",
        "meta_mean_motion": 1.70476011,
        "meta_eccentricity": 0.00051511,
        "meta_inclination": 57.0515,
        "meta_ra_of_asc_node": 346.5875,
        "meta_arg_of_pericenter": 312.968,
        "meta_mean_anomaly": 224.4746,
        "meta_ephemeris_type": 0,
        "meta_classification_type": "U",
        "meta_norad_cat_id": 37847,
        "meta_element_set_no": 999,
        "meta_rev_at_epoch": 8809,
        "meta_bstar": 0,
        "meta_mean_motion_dot": -6.8e-07,
        "meta_mean_motion_ddot": 0,
        "tle_line1": "1 37847U 11060B   25355.32812456 -.00000068  00000+0  00000+0 0  9991",
        "tle_line2": "2 37847  57.0515 346.5875 0005151 312.9680 224.4746  1.70476011 88094"
      },
      "geometry": {
        "type": "Point",
        "coordinates": [
          175.65947711764514,
          -13.703266595869685
        ]
      }
    },
    {
      "type": "Feature",
      "properties": {
        "norad_id": 37867,
        "name": "COSMOS 2476 (744)",
        "group": "gnss",
        "lat": -65.18856316170717,
        "lon": -10.20482065354223,
        "alt_km": 19085.961826562543,
        "timestamp": "2025-12-21T22:41:41.703063+00:00",
        "meta_object_name": "COSMOS 2476 (744)",
        "meta_object_id": "2011-064A",
        "meta_epoch": "2025-12-19T06:05:26.552256",
        "meta_mean_motion": 2.13103916,
        "meta_eccentricity": 0.0024321,
        "meta_inclination": 65.1662,
        "meta_ra_of_asc_node": 78.9509,
        "meta_arg_of_pericenter": 234.6548,
        "meta_mean_anomaly": 130.4776,
        "meta_ephemeris_type": 0,
        "meta_classification_type": "U",
        "meta_norad_cat_id": 37867,
        "meta_element_set_no": 999,
        "meta_rev_at_epoch": 10993,
        "meta_bstar": 0,
        "meta_mean_motion_dot": -3e-07,
        "meta_mean_motion_ddot": 0,
        "tle_line1": "1 37867U 11064A   25353.25377954 -.00000030  00000+0  00000+0 0  9995",
        "tle_line2": "2 37867  65.1662  78.9509 0024321 234.6548 130.4776  2.13103916109937"
      },
      "geometry": {
        "type": "Point",
        "coordinates": [
          -10.20482065354223,
          -65.18856316170717
        ]
      }
    },
    {
      "type": "Feature",
      "properties": {
        "norad_id": 37868,
        "name": "COSMOS 2477 (745)",
        "group": "gnss",
        "lat": 65.17907522861303,
        "lon": 171.28059311699985,
        "alt_km": 19167.40858921084,
        "timestamp": "2025-12-21T22:41:41.703075+00:00",
        "meta_object_name": "COSMOS 2477 (745)",
        "meta_object_id": "2011-064B",
        "meta_epoch": "2025-12-21T10:11:05.859168",
        "meta_mean_motion": 2.13103052,
        "meta_eccentricity": 0.00215188,
        "meta_inclination": 65.1732,
        "meta_ra_of_asc_node": 78.9552,
        "meta_arg_of_pericenter": 235.2861,
        "meta_mean_anomaly": 175.9616,
        "meta_ephemeris_type": 0,
        "meta_classification_type": "U",
        "meta_norad_cat_id": 37868,
        "meta_element_set_no": 999,
        "meta_rev_at_epoch": 10997,
        "meta_bstar": 0,
        "meta_mean_motion_dot": -9e-08,
        "meta_mean_motion_ddot": 0,
        "tle_line1": "1 37868U 11064B   25355.42437337 -.00000009  00000+0  00000+0 0  9995",
        "tle_line2": "2 37868  65.1732  78.9552 0021518 235.2861 175.9616  2.13103052109976"
      },
      "geometry": {
        "type": "Point",
        "coordinates": [
          171.28059311699985,
          65.17907522861303
        ]
      }
    },
    {
      "type": "Feature",
      "properties": {
        "norad_id": 37869,
        "name": "COSMOS 2475 (743)",
        "group": "gnss",
        "lat": 41.697124174175016,
        "lon": 103.27468821453209,
        "alt_km": 19188.091735341925,
        "timestamp": "2025-12-21T22:41:41.703086+00:00",
        "meta_object_name": "COSMOS 2475 (743)",
        "meta_object_id": "2011-064C",
        "meta_epoch": "2025-12-21T11:20:32.914752",
        "meta_mean_motion": 2.13101692,
        "meta_eccentricity": 0.00265897,
        "meta_inclination": 65.1803,
        "meta_ra_of_asc_node": 78.9738,
        "meta_arg_of_pericenter": 248.9867,
        "meta_mean_anomaly": 155.1664,
        "meta_ephemeris_type": 0,
        "meta_classification_type": "U",
        "meta_norad_cat_id": 37869,
        "meta_element_set_no": 999,
        "meta_rev_at_epoch": 10998,
        "meta_bstar": 0,
        "meta_mean_motion_dot": -9e-08,
        "meta_mean_motion_ddot": 0,
        "tle_line1": "1 37869U 11064C   25355.47260318 -.00000009  00000+0  00000+0 0  9994",
        "tle_line2": "2 37869  65.1803  78.9738 0026589 248.9867 155.1664  2.13101692109984"
      },
      "geometry": {
        "type": "Point",
        "coordinates": [
          103.27468821453209,
          41.697124174175016
        ]
      }
    },
    {
      "type": "Feature",
      "properties": {
        "norad_id": 37948,
        "name": "BEIDOU-2 IGSO-5 (C10)",
        "group": "gnss",
        "lat": -44.85250573964632,
        "lon": 157.1567431833621,
        "alt_km": 35382.32529903414,
        "timestamp": "2025-12-21T22:41:41.703105+00:00",
        "meta_object_name": "BEIDOU-2 IGSO-5 (C10)",
        "meta_object_id": "2011-073A",
        "meta_epoch": "2025-12-20T17:45:23.966208",
        "meta_mean_motion": 1.00289634,
        "meta_eccentricity": 0.01098505,
        "meta_inclination": 48.0053,
        "meta_ra_of_asc_node": 273.7608,
        "meta_arg_of_pericenter": 222.3057,
        "meta_mean_anomaly": 313.2909,
        "meta_ephemeris_type": 0,
        "meta_classification_type": "U",
        "meta_norad_cat_id": 37948,
        "meta_element_set_no": 999,
        "meta_rev_at_epoch": 5134,
        "meta_bstar": 0,
        "meta_mean_motion_dot": -1.51e-06,
        "meta_mean_motion_ddot": 0,
        "tle_line1": "1 37948U 11073A   25354.73986072 -.00000151  00000+0  00000+0 0  9990",
        "tle_line2": "2 37948  48.0053 273.7608 0109850 222.3057 313.2909  1.00289634 51343"
      },
      "geometry": {
        "type": "Point",
        "coordinates": [
          157.1567431833621,
          -44.85250573964632
        ]
      }
    },
    {
      "type": "Feature",
      "properties": {
        "norad_id": 37951,
        "name": "LUCH 5A (SDCM/PRN 140)",
        "group": "gnss",
        "lat": 2.5754848170118447,
        "lon": -121.61114223445543,
        "alt_km": 35767.40696546895,
        "timestamp": "2025-12-21T22:41:41.703117+00:00",
        "meta_object_name": "LUCH 5A (SDCM/PRN 140)",
        "meta_object_id": "2011-074B",
        "meta_epoch": "2025-12-19T12:20:45.341088",
        "meta_mean_motion": 1.0026908,
        "meta_eccentricity": 0.0005087,
        "meta_inclination": 8.2961,
        "meta_ra_of_asc_node": 76.4843,
        "meta_arg_of_pericenter": 189.4736,
        "meta_mean_anomaly": 174.6688,
        "meta_ephemeris_type": 0,
        "meta_classification_type": "U",
        "meta_norad_cat_id": 37951,
        "meta_element_set_no": 999,
        "meta_rev_at_epoch": 5125,
        "meta_bstar": 0,
        "meta_mean_motion_dot": -3.2e-07,
        "meta_mean_motion_ddot": 0,
        "tle_line1": "1 37951U 11074B   25353.51441367 -.00000032  00000+0  00000+0 0  9991",
        "tle_line2": "2 37951   8.2961  76.4843 0005087 189.4736 174.6688  1.00269080 51252"
      },
      "geometry": {
        "type": "Point",
        "coordinates": [
          -121.61114223445543,
          2.5754848170118447
        ]
      }
    }
  ]
}